[{"OBJECT_NAME":"STARLINK-31763","OBJECT_ID":"2024-080Y","EPOCH":"2026-03-20T02:55:29.493696","MEAN_MOTION":15.2758058,"ECCENTRICITY":0.00014645,"INCLINATION":43.004,"RA_OF_ASC_NODE":339.3763,"ARG_OF_PERICENTER":260.0973,"MEAN_ANOMALY":99.9714,"EPHEMERIS_TYPE":0,"CLASSIFICATION_TYPE":"U","NORAD_CAT_ID":59623,"ELEMENT_SET_NO":999,"REV_AT_EPOCH":10612,"BSTAR":2.4928443e-5,"MEAN_MOTION_DOT":4.24e-6,"MEAN_MOTION_DDOT":0},{"OBJECT_NAME":"STARLINK-31749","OBJECT_ID":"2024-082A","EPOCH":"2026-03-20T06:25:59.463840","MEAN_MOTION":15.27580322,"ECCENTRICITY":0.0001162,"INCLINATION":43.0027,"RA_OF_ASC_NODE":79.7328,"ARG_OF_PERICENTER":249.5771,"MEAN_ANOMALY":110.4956,"EPHEMERIS_TYPE":0,"CLASSIFICATION_TYPE":"U","NORAD_CAT_ID":59631,"ELEMENT_SET_NO":999,"REV_AT_EPOCH":10663,"BSTAR":2.5421e-6,"MEAN_MOTION_DOT":-1.92e-6,"MEAN_MOTION_DDOT":0},{"OBJECT_NAME":"STARLINK-31781","OBJECT_ID":"2024-082B","EPOCH":"2026-03-20T00:50:56.059584","MEAN_MOTION":15.27576155,"ECCENTRICITY":0.00013394,"INCLINATION":43.0038,"RA_OF_ASC_NODE":67.2682,"ARG_OF_PERICENTER":272.8565,"MEAN_ANOMALY":87.2134,"EPHEMERIS_TYPE":0,"CLASSIFICATION_TYPE":"U","NORAD_CAT_ID":59632,"ELEMENT_SET_NO":999,"REV_AT_EPOCH":10659,"BSTAR":2.4679905e-5,"MEAN_MOTION_DOT":4.17e-6,"MEAN_MOTION_DDOT":0},{"OBJECT_NAME":"STARLINK-31541","OBJECT_ID":"2024-082C","EPOCH":"2026-03-20T06:42:12.104928","MEAN_MOTION":15.275775,"ECCENTRICITY":0.0001989,"INCLINATION":43.0042,"RA_OF_ASC_NODE":72.8856,"ARG_OF_PERICENTER":291.7176,"MEAN_ANOMALY":68.3463,"EPHEMERIS_TYPE":0,"CLASSIFICATION_TYPE":"U","NORAD_CAT_ID":59633,"ELEMENT_SET_NO":999,"REV_AT_EPOCH":10670,"BSTAR":3.8053e-6,"MEAN_MOTION_DOT":-1.58e-6,"MEAN_MOTION_DDOT":0},{"OBJECT_NAME":"STARLINK-31797","OBJECT_ID":"2024-082D","EPOCH":"2026-03-20T08:27:54.947520","MEAN_MOTION":15.2757505,"ECCENTRICITY":0.00010197,"INCLINATION":43.0012,"RA_OF_ASC_NODE":79.511,"ARG_OF_PERICENTER":267.7968,"MEAN_ANOMALY":92.2767,"EPHEMERIS_TYPE":0,"CLASSIFICATION_TYPE":"U","NORAD_CAT_ID":59634,"ELEMENT_SET_NO":999,"REV_AT_EPOCH":10648,"BSTAR":7.6032832e-5,"MEAN_MOTION_DOT":1.83e-5,"MEAN_MOTION_DDOT":0},{"OBJECT_NAME":"STARLINK-31798","OBJECT_ID":"2024-082E","EPOCH":"2026-03-20T01:23:22.680096","MEAN_MOTION":15.2757569,"ECCENTRICITY":9.798e-5,"INCLINATION":43.0043,"RA_OF_ASC_NODE":81.5944,"ARG_OF_PERICENTER":263.2706,"MEAN_ANOMALY":96.8034,"EPHEMERIS_TYPE":0,"CLASSIFICATION_TYPE":"U","NORAD_CAT_ID":59635,"ELEMENT_SET_NO":999,"REV_AT_EPOCH":10639,"BSTAR":8.401106e-6,"MEAN_MOTION_DOT":-3.1e-7,"MEAN_MOTION_DDOT":0},{"OBJECT_NAME":"STARLINK-31802","OBJECT_ID":"2024-082F","EPOCH":"2026-03-20T01:12:16.682112","MEAN_MOTION":15.27574661,"ECCENTRICITY":0.00012279,"INCLINATION":43.0047,"RA_OF_ASC_NODE":81.5412,"ARG_OF_PERICENTER":276.5333,"MEAN_ANOMALY":83.5379,"EPHEMERIS_TYPE":0,"CLASSIFICATION_TYPE":"U","NORAD_CAT_ID":59636,"ELEMENT_SET_NO":999,"REV_AT_EPOCH":10639,"BSTAR":-2.4784567e-5,"MEAN_MOTION_DOT":-9.44e-6,"MEAN_MOTION_DDOT":0},{"OBJECT_NAME":"STARLINK-31791","OBJECT_ID":"2024-082G","EPOCH":"2026-03-20T00:20:28.092192","MEAN_MOTION":15.27583183,"ECCENTRICITY":0.00011146,"INCLINATION":43.0016,"RA_OF_ASC_NODE":81.2664,"ARG_OF_PERICENTER":263.9812,"MEAN_ANOMALY":96.0913,"EPHEMERIS_TYPE":0,"CLASSIFICATION_TYPE":"U","NORAD_CAT_ID":59637,"ELEMENT_SET_NO":999,"REV_AT_EPOCH":10639,"BSTAR":-3.4905917e-5,"MEAN_MOTION_DOT":-1.222e-5,"MEAN_MOTION_DDOT":0},{"OBJECT_NAME":"STARLINK-31727","OBJECT_ID":"2024-082H","EPOCH":"2026-03-20T09:19:42.530880","MEAN_MOTION":15.27576002,"ECCENTRICITY":0.00012737,"INCLINATION":43.0043,"RA_OF_ASC_NODE":79.7779,"ARG_OF_PERICENTER":274.7501,"MEAN_ANOMALY":85.3205,"EPHEMERIS_TYPE":0,"CLASSIFICATION_TYPE":"U","NORAD_CAT_ID":59638,"ELEMENT_SET_NO":999,"REV_AT_EPOCH":10649,"BSTAR":8.626607e-6,"MEAN_MOTION_DOT":-2.5e-7,"MEAN_MOTION_DDOT":0},{"OBJECT_NAME":"STARLINK-31807","OBJECT_ID":"2024-082J","EPOCH":"2026-03-20T01:17:49.746336","MEAN_MOTION":15.27576454,"ECCENTRICITY":0.00011754,"INCLINATION":43.005,"RA_OF_ASC_NODE":81.5664,"ARG_OF_PERICENTER":277.8454,"MEAN_ANOMALY":82.2264,"EPHEMERIS_TYPE":0,"CLASSIFICATION_TYPE":"U","NORAD_CAT_ID":59639,"ELEMENT_SET_NO":999,"REV_AT_EPOCH":10639,"BSTAR":-1.6166471e-5,"MEAN_MOTION_DOT":-7.07e-6,"MEAN_MOTION_DDOT":0},{"OBJECT_NAME":"STARLINK-31806","OBJECT_ID":"2024-082K","EPOCH":"2026-03-20T07:08:32.691840","MEAN_MOTION":15.27584576,"ECCENTRICITY":0.0001012,"INCLINATION":43.0005,"RA_OF_ASC_NODE":79.9569,"ARG_OF_PERICENTER":267.9292,"MEAN_ANOMALY":92.1444,"EPHEMERIS_TYPE":0,"CLASSIFICATION_TYPE":"U","NORAD_CAT_ID":59640,"ELEMENT_SET_NO":999,"REV_AT_EPOCH":10643,"BSTAR":-5.7528e-5,"MEAN_MOTION_DOT":-1.845e-5,"MEAN_MOTION_DDOT":0},{"OBJECT_NAME":"STARLINK-31804","OBJECT_ID":"2024-082L","EPOCH":"2026-03-20T06:31:32.289600","MEAN_MOTION":15.27577994,"ECCENTRICITY":0.0001096,"INCLINATION":43.0025,"RA_OF_ASC_NODE":79.7592,"ARG_OF_PERICENTER":258.9775,"MEAN_ANOMALY":101.0954,"EPHEMERIS_TYPE":0,"CLASSIFICATION_TYPE":"U","NORAD_CAT_ID":59641,"ELEMENT_SET_NO":999,"REV_AT_EPOCH":10643,"BSTAR":4.0308e-5,"MEAN_MOTION_DOT":8.47e-6,"MEAN_MOTION_DDOT":0},{"OBJECT_NAME":"STARLINK-31660","OBJECT_ID":"2024-082M","EPOCH":"2026-03-20T13:35:56.474304","MEAN_MOTION":15.27580613,"ECCENTRICITY":9.053e-5,"INCLINATION":43.002,"RA_OF_ASC_NODE":38.0097,"ARG_OF_PERICENTER":263.2852,"MEAN_ANOMALY":96.7897,"EPHEMERIS_TYPE":0,"CLASSIFICATION_TYPE":"U","NORAD_CAT_ID":59642,"ELEMENT_SET_NO":999,"REV_AT_EPOCH":10713,"BSTAR":2.0753794e-5,"MEAN_MOTION_DOT":3.09e-6,"MEAN_MOTION_DDOT":0},{"OBJECT_NAME":"STARLINK-31800","OBJECT_ID":"2024-082N","EPOCH":"2026-03-20T08:59:21.620256","MEAN_MOTION":15.27580023,"ECCENTRICITY":0.0001281,"INCLINATION":43.0039,"RA_OF_ASC_NODE":79.6563,"ARG_OF_PERICENTER":289.66,"MEAN_ANOMALY":70.4113,"EPHEMERIS_TYPE":0,"CLASSIFICATION_TYPE":"U","NORAD_CAT_ID":59643,"ELEMENT_SET_NO":999,"REV_AT_EPOCH":10654,"BSTAR":0.00013639485,"MEAN_MOTION_DOT":3.493e-5,"MEAN_MOTION_DDOT":0},{"OBJECT_NAME":"STARLINK-31789","OBJECT_ID":"2024-082P","EPOCH":"2026-03-20T06:48:11.016576","MEAN_MOTION":15.27560032,"ECCENTRICITY":0.0001046,"INCLINATION":42.9991,"RA_OF_ASC_NODE":79.8458,"ARG_OF_PERICENTER":256.5824,"MEAN_ANOMALY":103.4911,"EPHEMERIS_TYPE":0,"CLASSIFICATION_TYPE":"U","NORAD_CAT_ID":59644,"ELEMENT_SET_NO":999,"REV_AT_EPOCH":10663,"BSTAR":0.00044592,"MEAN_MOTION_DOT":0.00012021,"MEAN_MOTION_DDOT":0},{"OBJECT_NAME":"STARLINK-31795","OBJECT_ID":"2024-082Q","EPOCH":"2026-03-20T05:44:43.608768","MEAN_MOTION":15.27581409,"ECCENTRICITY":0.0001411,"INCLINATION":43.0051,"RA_OF_ASC_NODE":21.6592,"ARG_OF_PERICENTER":271.0074,"MEAN_ANOMALY":89.0616,"EPHEMERIS_TYPE":0,"CLASSIFICATION_TYPE":"U","NORAD_CAT_ID":59645,"ELEMENT_SET_NO":999,"REV_AT_EPOCH":10709,"BSTAR":5.1276e-6,"MEAN_MOTION_DOT":-1.21e-6,"MEAN_MOTION_DDOT":0}]
