[
  {
    "name": "STARLINK-31763",
    "tle1": "1 59623U 24080Y   26079.12186914  .00000424  00000+0  24928-4 0  9993",
    "tle2": "2 59623  43.0040 339.3763 0001464 260.0973  99.9714 15.27580580106124"
  },
  {
    "name": "STARLINK-31749",
    "tle1": "1 59631U 24082A   26079.26804935 -.00000192  00000+0  25421-5 0  9992",
    "tle2": "2 59631  43.0027  79.7328 0001162 249.5771 110.4956 15.27580322106630"
  },
  {
    "name": "STARLINK-31781",
    "tle1": "1 59632U 24082B   26079.03537106  .00000417  00000+0  24680-4 0  9995",
    "tle2": "2 59632  43.0038  67.2682 0001339 272.8565  87.2134 15.27576155106597"
  },
  {
    "name": "STARLINK-31541",
    "tle1": "1 59633U 24082C   26079.27930677 -.00000158  00000+0  38053-5 0  9995",
    "tle2": "2 59633  43.0042  72.8856 0001989 291.7176  68.3463 15.27577500106700"
  },
  {
    "name": "STARLINK-31797",
    "tle1": "1 59634U 24082D   26079.35271930  .00001830  00000+0  76033-4 0  9991",
    "tle2": "2 59634  43.0012  79.5110 0001019 267.7968  92.2767 15.27575050106487"
  },
  {
    "name": "STARLINK-31798",
    "tle1": "1 59635U 24082E   26079.05790139 -.00000031  00000+0  84011-5 0  9995",
    "tle2": "2 59635  43.0043  81.5944 0000979 263.2706  96.8034 15.27575690106392"
  },
  {
    "name": "STARLINK-31802",
    "tle1": "1 59636U 24082F   26079.05019308 -.00000944  00000+0 -24785-4 0  9993",
    "tle2": "2 59636  43.0047  81.5412 0001227 276.5333  83.5379 15.27574661106399"
  },
  {
    "name": "STARLINK-31791",
    "tle1": "1 59637U 24082G   26079.01421403 -.00001222  00000+0 -34906-4 0  9999",
    "tle2": "2 59637  43.0016  81.2664 0001114 263.9812  96.0913 15.27583183106391"
  },
  {
    "name": "STARLINK-31727",
    "tle1": "1 59638U 24082H   26079.38868670 -.00000025  00000+0  86266-5 0  9997",
    "tle2": "2 59638  43.0043  79.7779 0001273 274.7501  85.3205 15.27576002106490"
  },
  {
    "name": "STARLINK-31807",
    "tle1": "1 59639U 24082J   26079.05404799 -.00000707  00000+0 -16166-4 0  9999",
    "tle2": "2 59639  43.0050  81.5664 0001175 277.8454  82.2264 15.27576454106396"
  },
  {
    "name": "STARLINK-31806",
    "tle1": "1 59640U 24082K   26079.29760060 -.00001845  00000+0 -57528-4 0  9994",
    "tle2": "2 59640  43.0005  79.9569 0001012 267.9292  92.1444 15.27584576106432"
  },
  {
    "name": "STARLINK-31804",
    "tle1": "1 59641U 24082L   26079.27190150  .00000847  00000+0  40308-4 0  9997",
    "tle2": "2 59641  43.0025  79.7592 0001096 258.9775 101.0954 15.27577994106439"
  },
  {
    "name": "STARLINK-31660",
    "tle1": "1 59642U 24082M   26079.56662586  .00000309  00000+0  20754-4 0  9993",
    "tle2": "2 59642  43.0020  38.0097 0000905 263.2852  96.7897 15.27580613107132"
  },
  {
    "name": "STARLINK-31800",
    "tle1": "1 59643U 24082N   26079.37455579  .00003493  00000+0  13639-3 0  9995",
    "tle2": "2 59643  43.0039  79.6563 0001281 289.6600  70.4113 15.27580023106542"
  },
  {
    "name": "STARLINK-31789",
    "tle1": "1 59644U 24082P   26079.28346084  .00012021  00000+0  44592-3 0  9995",
    "tle2": "2 59644  42.9991  79.8458 0001046 256.5824 103.4911 15.27560032106634"
  },
  {
    "name": "STARLINK-31795",
    "tle1": "1 59645U 24082Q   26079.23939362 -.00000121  00000+0  51276-5 0  9996",
    "tle2": "2 59645  43.0051  21.6592 0001411 271.0074  89.0616 15.27581409107096"
  }
]